OBJECT_NAME,OBJECT_ID,EPOCH,MEAN_MOTION,ECCENTRICITY,INCLINATION,RA_OF_ASC_NODE,ARG_OF_PERICENTER,MEAN_ANOMALY,EPHEMERIS_TYPE,CLASSIFICATION_TYPE,NORAD_CAT_ID,ELEMENT_SET_NO,REV_AT_EPOCH,BSTAR,MEAN_MOTION_DOT,MEAN_MOTION_DDOT
STARLINK-37987,2026-150L,2026-07-19T12:46:16.251456,15.75191474,.00004519,97.2830,39.1027,138.9172,221.2127,0,U,69749,999,400,.50307975E-3,.75577E-3,0
STARLINK-38037,2026-150M,2026-07-19T01:26:59.435232,15.80816640,.00019856,97.2848,38.6752,76.0288,284.1201,0,U,69750,999,393,.10371471E-2,.203229E-2,0
STARLINK-38049,2026-150N,2026-07-19T12:03:35.719200,15.80873888,.00011107,97.2842,39.1450,115.4415,244.6969,0,U,69751,999,400,.93965963E-3,.184183E-2,0
STARLINK-38029,2026-150P,2026-07-19T12:22:23.306592,15.75200591,.0001124,97.2847,39.1273,96.4282,263.7111,0,U,69752,999,400,.94140016E-3,.142721E-2,0
STARLINK-37965,2026-150Q,2026-07-19T12:32:02.654880,15.75197657,.00008189,97.2848,39.1171,76.9385,283.1971,0,U,69753,999,400,.88218817E-3,.133574E-2,0
STARLINK-38048,2026-150R,2026-07-19T11:54:46.880352,15.80933272,.00014455,97.2837,39.1534,106.5557,253.5871,0,U,69754,999,400,.14353482E-2,.28551E-2,0
STARLINK-38006,2026-150S,2026-07-19T19:56:13.863264,15.75204632,.0001088,97.2856,39.4639,77.0525,283.0862,0,U,69755,999,405,.67034E-3,.101109E-2,0
STARLINK-38036,2026-150T,2026-07-19T20:00:01.999008,15.75111732,.0000983,97.2852,39.4843,94.1770,318.8900,0,U,69756,999,404,.31726E-3,.47292E-3,0
STARLINK-38058,2026-150U,2026-07-19T20:00:01.999008,15.75224913,.0001368,97.2847,39.5095,99.7929,11.3004,0,U,69757,999,404,-.75166E-3,-.110969E-2,0
STARLINK-38066,2026-150V,2026-07-19T00:00:00.999648,15.80043025,.00016054,97.2847,38.6399,95.0237,347.5572,0,U,69758,999,390,-.11660207E-1,-.1886094E-1,0
STARLINK-38035,2026-150W,2026-07-19T20:00:01.999008,15.80835869,.0001179,97.2843,39.5232,90.8253,52.0299,0,U,69759,999,404,-.26092E-3,-.4988E-3,0
STARLINK-38056,2026-150X,2026-07-19T19:18:55.112256,15.80854192,.000244,97.2842,39.5000,98.0604,262.0941,0,U,69760,999,405,.82441E-3,.161012E-2,0
STARLINK-38069,2026-150Y,2026-07-19T20:00:01.999008,15.75232960,.0000909,97.2854,39.5242,89.6616,57.4237,0,U,69761,999,404,-.80575E-3,-.118871E-2,0
STARLINK-38019,2026-150Z,2026-07-19T19:55:12.888192,15.75233041,.0001173,97.2840,39.4647,78.8960,281.2437,0,U,69762,999,405,.11406E-2,.173829E-2,0
KUIPER-00258,2026-151A,2026-07-19T08:51:00.520128,15.34701303,.00110882,51.8677,160.4478,185.2272,174.8600,0,U,69763,999,265,.48363704E-3,.16196E-3,0
KUIPER-00526,2026-151B,2026-07-19T20:49:07.802688,15.37390833,.0005762,51.8774,157.8037,155.3339,204.7925,0,U,69764,999,273,.30371E-3,.10935E-3,0
KUIPER-00558,2026-151C,2026-07-19T20:00:01.999008,15.31356703,.0006846,51.8794,158.1116,167.1073,290.6555,0,U,69765,999,333,-.18413E-1,-.528659E-2,0
KUIPER-00569,2026-151D,2026-07-19T00:00:00.999648,15.37536026,.00051062,51.8800,161.9756,149.5744,96.8948,0,U,69766,999,169,-.28959487E-3,-.11214E-3,0
KUIPER-00589,2026-151E,2026-07-19T12:59:49.841376,15.37369502,.0004589,51.8758,159.3693,154.1869,205.9347,0,U,69767,999,268,-.28457E-3,-.10968E-3,0
KUIPER-00598,2026-151F,2026-07-19T20:00:01.999008,15.34313009,.000869,51.8647,158.2110,179.0068,226.1797,0,U,69768,999,327,.12309E-2,.41407E-3,0
KUIPER-00604,2026-151G,2026-07-19T09:39:08.582688,15.38304923,.00027079,51.8805,159.9344,118.4354,241.6906,0,U,69769,999,266,.28299843E-3,.10473E-3,0
KUIPER-00609,2026-151H,2026-07-19T20:27:13.072032,15.38709271,.0001479,51.8806,157.7038,50.8026,309.3092,0,U,69770,999,273,.36318E-3,.13742E-3,0
KUIPER-00611,2026-151J,2026-07-19T09:35:44.205216,15.38514241,.00016925,51.8807,159.9157,118.8141,241.3017,0,U,69771,999,266,.28219479E-3,.10516E-3,0
KUIPER-00612,2026-151K,2026-07-19T12:51:02.549088,15.38008452,.0003644,51.8793,159.3297,120.1060,240.0289,0,U,69772,999,268,.31369E-3,.1154E-3,0
KUIPER-00614,2026-151L,2026-07-19T14:21:12.182688,15.38213806,.0002715,51.8808,158.9958,134.2049,225.9162,0,U,69773,999,269,.29007E-3,.10712E-3,0
KUIPER-00615,2026-151M,2026-07-19T20:50:37.167936,15.37300416,.0006329,51.8786,157.8077,164.0865,196.0321,0,U,69774,999,273,.33705E-3,.12145E-3,0
KUIPER-00616,2026-151N,2026-07-19T20:32:32.210304,15.38401162,.0002822,51.8790,157.7299,137.0731,223.0477,0,U,69775,999,273,.40879E-3,.15363E-3,0
KUIPER-00617,2026-151P,2026-07-19T20:41:07.852416,15.37858972,.0003678,51.8799,157.7663,142.5405,217.5839,0,U,69776,999,273,.36708E-3,.13507E-3,0
KUIPER-00619,2026-151Q,2026-07-19T12:41:09.546144,15.38607346,.00017879,51.8805,159.2805,80.9272,279.1917,0,U,69777,999,268,.38295722E-3,.14464E-3,0
KUIPER-00621,2026-151R,2026-07-19T14:18:29.590848,15.37960437,.0003963,51.8786,158.9891,181.3547,178.7430,0,U,69778,999,269,-.77804E-2,-.28478E-2,0
